EUTELSAT 7A             
1 28187U 04008A   25365.23652898  .00000114  00000+0  00000+0 0  9996
2 28187   5.4037  74.0362 0001469 230.9502 100.8776  1.00273612 79669
EUTELSAT 174A           
1 28924U 05052A   25365.24905808  .00000021  00000+0  00000+0 0  9995
2 28924   3.7931  78.6311 0006308 203.1135  81.8044  1.00271037 50649
EUTELSAT HOTBIRD 13B    
1 29270U 06032A   25365.25751567  .00000171  00000+0  00000+0 0  9997
2 29270   1.2275  84.1986 0003546 198.2655 303.2447  1.00270976 45621
EUTELSAT HOTBIRD 13C    
1 33459U 08065A   25365.24096222 -.00000269  00000+0  00000+0 0  9997
2 33459   2.5181  81.2110 0003706 198.8305 216.3226  1.00270292 45662
EUTELSAT 36B            
1 36101U 09065A   25365.26098236  .00000128  00000+0  00000+0 0  9997
2 36101   0.0719  54.6531 0006104 225.2360 324.5015  1.00273675 59022
EUTELSAT KA-SAT 9A      
1 37258U 10069A   25365.11009475  .00000079  00000+0  00000+0 0  9993
2 37258   0.0501 339.1848 0001233 215.6123 313.5828  1.00275835 42320
EUTELSAT 7 WEST A       
1 37816U 11051A   25365.24945561 -.00000044  00000+0  00000+0 0  9997
2 37816   0.0622   5.6486 0005177 230.9730 305.7907  1.00270942 52193
EUTELSAT 16A            
1 37836U 11057A   25365.25413565  .00000121  00000+0  00000+0 0  9995
2 37836   0.0553   4.8811 0005785 277.7768 284.7638  1.00273614  5640
